NORAD_CAT_ID,OBJECT_NAME,OBJECT_TYPE,EPOCH,MEAN_MOTION,ECCENTRICITY,INCLINATION,RA_OF_ASC_NODE,ARG_OF_PERICENTER,MEAN_ANOMALY,BSTAR,MEAN_MOTION_DOT,MEAN_MOTION_DDOT,TLE_LINE0,TLE_LINE1,TLE_LINE2,SEMIMAJOR_AXIS,PERIOD,APOGEE,PERIGEE,DECAYED
55926.0,STARLINK-5921,PAYLOAD,2023-08-06 01:57:14,14.99303605,0.0002951,70.0,151.344,263.5556,96.5267,0.00012725,1.464e-05,0.0,0 STARLINK-5921,1 55926U 23037N   23218.08141411  .00001464  00000-0  12725-3 0  9993,2 55926  70.0000 151.3440 0002951 263.5556  96.5267 14.99303605 22529,6947.184,96.045,571.099,566.999,0.0
55926.0,STARLINK-5921,PAYLOAD,2023-08-07 01:58:20,14.99292962,0.0003071,70.0,148.8169,267.5649,92.5159,-0.00015982,-2.048e-05,0.0,0 STARLINK-5921,1 55926U 23037N   23219.08218250 -.00002048  00000-0 -15982-3 0  9999,2 55926  70.0000 148.8169 0003071 267.5649  92.5159 14.99292962 22674,6947.217,96.045,571.215,566.948,0.0
55926.0,STARLINK-5921,PAYLOAD,2023-08-07 19:35:07,14.99301927,0.000324,69.9995,146.9636,269.1512,90.9276,-6.9676e-05,-9.46e-06,0.0,0 STARLINK-5921,1 55926U 23037N   23219.81606061 -.00000946  00000-0 -69676-4 0  9996,2 55926  69.9995 146.9636 0003240 269.1512  90.9276 14.99301927 22783,6947.189,96.045,571.305,566.803,0.0
55926.0,STARLINK-5921,PAYLOAD,2023-08-08 06:47:37,14.99312035,0.0003136,69.9998,145.7846,268.7958,91.2843,5.4548e-05,5.74e-06,0.0,0 STARLINK-5921,1 55926U 23037N   23220.28306720  .00000574  00000-0  54548-4 0  9995,2 55926  69.9998 145.7846 0003136 268.7958  91.2843 14.99312035 22853,6947.158,96.044,571.201,566.844,0.0
55926.0,STARLINK-5921,PAYLOAD,2023-08-08 18:00:07,14.99295635,0.0003002,70.0002,144.6059,269.6743,90.4073,0.00014599,1.693e-05,0.0,0 STARLINK-5921,1 55926U 23037N   23220.75009167  .00001693  00000-0  14599-3 0  9996,2 55926  70.0002 144.6059 0003002 269.6743  90.4073 14.99295635 22920,6947.208,96.045,571.159,566.988,0.0
55926.0,STARLINK-5921,PAYLOAD,2023-08-09 05:12:37,14.99302673,0.0002948,70.0003,143.4269,269.2262,90.856,0.00019732,2.321e-05,0.0,0 STARLINK-5921,1 55926U 23037N   23221.21710345  .00002321  00000-0  19732-3 0  9998,2 55926  70.0003 143.4269 0002948 269.2262  90.8560 14.99302673 22994,6947.187,96.045,571.1,567.004,0.0
55926.0,STARLINK-5921,PAYLOAD,2023-08-09 11:36:55,14.99293379,0.0002767,70.0008,142.7535,269.0099,91.0744,8.6262e-05,9.62e-06,0.0,0 STARLINK-5921,1 55926U 23037N   23221.48397989  .00000962  00000-0  86262-4 0  9994,2 55926  70.0008 142.7535 0002767 269.0099  91.0744 14.99293379 23037,6947.215,96.045,571.003,567.158,0.0
55926.0,STARLINK-5921,PAYLOAD,2023-08-10 05:13:42,14.99315655,0.0002651,69.9997,140.9006,256.9428,103.1436,-0.000257,-3.238e-05,0.0,0 STARLINK-5921,1 55926U 23037N   23222.21785788 -.00003238  00000-0 -25700-3 0  9994,2 55926  69.9997 140.9006 0002651 256.9428 103.1436 14.99315655 23144,6947.147,96.044,570.853,567.17,0.0
55926.0,STARLINK-5921,PAYLOAD,2023-08-10 11:38:00,14.99305837,0.0003265,69.9987,140.2235,273.9141,86.1645,-0.00013659,-1.765e-05,0.0,0 STARLINK-5921,1 55926U 23037N   23222.48472845 -.00001765  00000-0 -13659-3 0  9993,2 55926  69.9987 140.2235 0003265 273.9141  86.1645 14.99305837 23180,6947.177,96.044,571.31,566.774,0.0
55926.0,STARLINK-5921,PAYLOAD,2023-08-11 18:03:23,14.9929039,0.0003153,70.0001,137.0249,268.231,91.8489,7.8195e-05,8.63e-06,0.0,0 STARLINK-5921,1 55926U 23037N   23223.75235098  .00000863  00000-0  78195-4 0  9994,2 55926  70.0001 137.0249 0003153 268.2310  91.8489 14.99290390 23377,6947.225,96.045,571.28,566.899,0.0
55926.0,STARLINK-5921,PAYLOAD,2023-08-12 03:39:48,14.99297867,0.0003125,70.0001,136.0143,268.0041,92.0761,7.6308e-05,8.4e-06,0.0,0 STARLINK-5921,1 55926U 23037N   23224.15264861  .00000840  00000-0  76308-4 0  9998,2 55926  70.0001 136.0143 0003125 268.0041  92.0761 14.99297867 23436,6947.201,96.045,571.237,566.895,0.0
55926.0,STARLINK-5921,PAYLOAD,2023-08-13 05:16:57,14.99306624,0.000311,69.9999,133.3189,268.9538,91.1265,6.4056e-05,6.9e-06,0.0,0 STARLINK-5921,1 55926U 23037N   23225.22011199  .00000690  00000-0  64056-4 0  9991,2 55926  69.9999 133.3189 0003110 268.9538  91.1265 14.99306624 23591,6947.174,96.044,571.2,566.879,0.0
55926.0,STARLINK-5921,PAYLOAD,2023-08-14 02:06:16,14.99028637,0.0002805,69.9989,131.1294,274.7193,85.3646,-0.0028017,-0.00033969,0.0,0 STARLINK-5921,1 55926U 23037N   23226.08768763 -.00033969  00000-0 -28017-2 0  9994,2 55926  69.9989 131.1294 0002805 274.7193  85.3646 14.99028637 23723,6948.033,96.062,571.847,567.949,0.0
55926.0,STARLINK-5921,PAYLOAD,2023-08-14 08:30:55,14.98806306,0.0002967,69.9999,130.4568,294.8831,65.202,-0.0051156,-0.00061352,0.0,0 STARLINK-5921,1 55926U 23037N   23226.35480853 -.00061352  00000-0 -51156-2 0  9992,2 55926  69.9999 130.4568 0002967 294.8831  65.2020 14.98806306 23764,6948.72,96.076,572.647,568.524,0.0
55926.0,STARLINK-5921,PAYLOAD,2023-08-14 18:07:35,14.98743,0.0003243,70.0001,129.4473,275.2086,84.8703,-0.0053451,-0.00063973,0.0,0 STARLINK-5921,1 55926U 23037N   23226.75527717 -.00063973  00000-0 -53451-2 0  9998,2 55926  70.0001 129.4473 0003243 275.2086  84.8703 14.98743000 23820,6948.916,96.081,573.035,568.527,0.0
55926.0,STARLINK-5921,PAYLOAD,2023-08-16 02:09:54,14.98620242,0.0003349,69.9992,126.0788,279.6025,80.4755,-0.0044284,-0.00052933,0.0,0 STARLINK-5921,1 55926U 23037N   23228.09021496 -.00052933  00000-0 -44284-2 0  9998,2 55926  69.9992 126.0788 0003349 279.6025  80.4755 14.98620242 24020,6949.295,96.088,573.488,568.833,0.0
55926.0,STARLINK-5921,PAYLOAD,2023-08-16 16:35:09,14.98340003,0.0002859,70.0,124.5633,287.406,72.6786,-0.00022197,-2.741e-05,0.0,0 STARLINK-5921,1 55926U 23037N   23228.69108328 -.00002741  00000-0 -22197-3 0  9996,2 55926  70.0000 124.5633 0002859 287.4060  72.6786 14.98340003 24117,6950.162,96.106,574.014,570.04,0.0
55926.0,STARLINK-5921,PAYLOAD,2023-08-17 14:00:01,14.98288906,0.0003039,70.001,122.3149,264.7886,226.7806,0.0063853,0.00076855,0.0,0 STARLINK-5921,1 55926U 23037N   23229.58334491  .00076855  00000-0  63853-2 0  9995,2 55926  70.0010 122.3149 0003039 264.7886 226.7806 14.98288906 24243,6950.32,96.11,574.297,570.073,0.0
55926.0,STARLINK-5921,PAYLOAD,2023-08-18 02:13:53,14.98400359,0.0002999,70.0003,121.0297,269.0762,91.0053,0.00071362,8.448e-05,0.0,0 STARLINK-5921,1 55926U 23037N   23230.09298349  .00008448  00000-0  71362-3 0  9992,2 55926  70.0003 121.0297 0002999 269.0762  91.0053 14.98400359 24324,6949.975,96.102,573.925,569.756,0.0
55926.0,STARLINK-5921,PAYLOAD,2023-08-18 16:39:11,14.98324413,0.0002955,69.9983,119.5148,269.5187,90.5633,2.2605e-05,1.77e-06,0.0,0 STARLINK-5921,1 55926U 23037N   23230.69388588  .00000177  00000-0  22605-4 0  9991,2 55926  69.9983 119.5148 0002955 269.5187  90.5633 14.98324413 24417,6950.21,96.107,574.129,570.021,0.0
55926.0,STARLINK-5921,PAYLOAD,2023-08-19 02:15:59,14.98328225,0.0003118,69.9992,118.5053,270.4475,89.6327,9.3514e-05,1.023e-05,0.0,0 STARLINK-5921,1 55926U 23037N   23231.09444216  .00001023  00000-0  93514-4 0  9995,2 55926  69.9992 118.5053 0003118 270.4475  89.6327 14.98328225 24474,6950.198,96.107,574.23,569.896,0.0
55926.0,STARLINK-5921,PAYLOAD,2023-08-20 02:18:01,14.98327713,0.0003136,69.9992,115.9802,268.5108,91.5692,2.0319e-05,1.49e-06,0.0,0 STARLINK-5921,1 55926U 23037N   23232.09584586  .00000149  00000-0  20319-4 0  9992,2 55926  69.9992 115.9802 0003136 268.5108  91.5692 14.98327713 24623,6950.2,96.107,574.245,569.885,0.0
55926.0,STARLINK-5921,PAYLOAD,2023-08-21 02:20:01,14.98332644,0.00032,69.9995,113.4545,272.6709,87.4083,0.00010812,1.197e-05,0.0,0 STARLINK-5921,1 55926U 23037N   23233.09724012  .00001197  00000-0  10812-3 0  9993,2 55926  69.9995 113.4545 0003200 272.6709  87.4083 14.98332644 24771,6950.185,96.107,574.274,569.826,0.0
55926.0,STARLINK-5921,PAYLOAD,2023-08-21 19:57:30,14.98329724,0.0003118,69.9993,111.6033,271.4221,88.6581,-2.3295e-05,-3.71e-06,0.0,0 STARLINK-5921,1 55926U 23037N   23233.83160496 -.00000371  00000-0 -23295-4 0  9990,2 55926  69.9993 111.6033 0003118 271.4221  88.6581 14.98329724 24888,6950.194,96.107,574.226,569.892,0.0
55926.0,STARLINK-5921,PAYLOAD,2023-08-23 00:47:55,14.98328898,0.0002832,69.9997,108.5733,268.5663,91.5172,-3.8288e-05,-5.5e-06,0.0,0 STARLINK-5921,1 55926U 23037N   23235.03328526 -.00000550  00000-0 -38288-4 0  9991,2 55926  69.9997 108.5733 0002832 268.5663  91.5172 14.98328898 25064,6950.196,96.107,574.03,570.093,0.0
55926.0,STARLINK-5921,PAYLOAD,2023-08-24 18:27:23,14.98344864,0.000324,69.9994,104.1982,266.9756,93.1032,0.0001873,2.143e-05,0.0,0 STARLINK-5921,1 55926U 23037N   23236.76902291  .00002143  00000-0  18730-3 0  9996,2 55926  69.9994 104.1982 0003240 266.9756  93.1032 14.98344864 24982,6950.147,96.106,574.264,569.76,0.0
55926.0,STARLINK-5921,PAYLOAD,2023-08-25 02:28:03,14.98350746,0.0003219,69.9995,103.3564,268.043,92.0361,0.00022281,2.568e-05,0.0,0 STARLINK-5921,1 55926U 23037N   23237.10281462  .00002568  00000-0  22281-3 0  9992,2 55926  69.9995 103.3564 0003219 268.0430  92.0361 14.98350746 25371,6950.129,96.106,574.231,569.756,0.0
55926.0,STARLINK-5921,PAYLOAD,2023-08-25 18:29:25,14.98324355,0.0003311,69.9981,101.6705,270.2292,89.8487,-0.00013248,-1.673e-05,0.0,0 STARLINK-5921,1 55926U 23037N   23237.77043905 -.00001673  00000-0 -13248-3 0  9994,2 55926  69.9981 101.6705 0003311 270.2292  89.8487 14.98324355 25479,6950.21,96.107,574.377,569.774,0.0
55926.0,STARLINK-5921,PAYLOAD,2023-08-25 20:05:34,14.98323853,0.0003229,69.9988,101.5044,265.2043,94.8748,-0.00012131,-1.54e-05,0.0,0 STARLINK-5921,1 55926U 23037N   23237.83719959 -.00001540  00000-0 -12131-3 0  9993,2 55926  69.9988 101.5044 0003229 265.2043  94.8748 14.98323853 25149,6950.212,96.107,574.321,569.833,0.0
55926.0,STARLINK-5921,PAYLOAD,2023-08-26 00:53:58,14.98322744,0.000315,69.9989,100.999,268.2692,91.8107,-0.00013174,-1.664e-05,0.0,0 STARLINK-5921,1 55926U 23037N   23238.03747905 -.00001664  00000-0 -13174-3 0  9993,2 55926  69.9989 100.9990 0003150 268.2692  91.8107 14.98322744 25176,6950.215,96.107,574.27,569.891,0.0
